{
  "type": "FeatureCollection",
  "features": [
    {
      "type": "Feature",
      "geometry": {
        "type": "Polygon",
        "coordinates": [
          [
            [
              19.555676,
              34.65358
            ],
            [
              19.912846,
              36.157948
            ],
            [
              17.011099,
              36.571346
            ],
            [
              16.708139,
              35.068974
            ],
            [
              19.555676,
              34.65358
            ]
          ]
        ]
      },
      "properties": {
        "layer": "SCENE_FOOTPRINT",
        "product_id": "5847827e-1714-4492-ab36-39c2913c7f79",
        "title": "Sentinel-1 Footprint (5847827e-1714-4492-ab36-39c2913c7f79)"
      }
    },
    {
      "type": "Feature",
      "geometry": {
        "type": "Polygon",
        "coordinates": [
          [
            [
              16.708139,
              34.6610712734375
            ],
            [
              18.89885667578125,
              34.6610712734375
            ],
            [
              18.89885667578125,
              36.571346
            ],
            [
              16.708139,
              36.571346
            ],
            [
              16.708139,
              34.6610712734375
            ]
          ]
        ]
      },
      "properties": {
        "layer": "SPILL_DETECTION",
        "incident_id": "INC_5847827E",
        "product_id": "5847827e-1714-4492-ab36-39c2913c7f79",
        "geometry_hash": "64e295e751efdbb18a737cf74d8a64efa00b7c5461d9d9b34d0b9db88e02cd23",
        "area_km2": 92.6525,
        "confidence": "HIGH"
      }
    },
    {
      "type": "Feature",
      "geometry": {
        "type": "Polygon",
        "coordinates": [
          [
            [
              17.10863368356711,
              34.697215336152595
            ],
            [
              17.108169993109723,
              34.69714506175973
            ],
            [
              17.107701758121614,
              34.697118541456604
            ],
            [
              17.10723309808422,
              34.69713600856603
            ],
            [
              17.106768136218495,
              34.69719730941422
            ],
            [
              17.106310963209296,
              34.697301904682874
            ],
            [
              17.10586560121594,
              34.697448874153984
            ],
            [
              17.105435968485686,
              34.697636924805835
            ],
            [
              17.10502584488143,
              34.69786440218887
            ],
            [
              17.104638838626833,
              34.698129304981364
            ],
            [
              17.104278354561615,
              34.698429302596836
            ],
            [
              16.917528145636197,
              34.86928807400848
            ],
            [
              16.917210009596175,
              34.8696066084922
            ],
            [
              16.9169218145114,
              34.86995246735126
            ],
            [
              16.916665896776635,
              34.87032284671126
            ],
            [
              16.91644433111447,
              34.87071474391031
            ],
            [
              16.763227133263634,
              35.17269514754781
            ],
            [
              16.76304875495539,
              35.173087830914035
            ],
            [
              16.762904881571423,
              35.17349442591689
            ],
            [
              16.76279658363933,
              35.173911907179786
            ],
            [
              16.76272466697823,
              35.174337168324044
            ],
            [
              16.72093696973407,
              35.508561520196565
            ],
            [
              16.720900887059926,
              35.50902230650434
            ],
            [
              16.72090750782986,
              35.509484455989046
            ],
            [
              16.720956775469126,
              35.509944019565204
            ],
            [
              16.721048268983818,
              35.51039707024402
            ],
            [
              16.96183229947638,
              36.47137970525066
            ],
            [
              16.96196895795965,
              36.47183292085237
            ],
            [
              16.962147863700817,
              36.47227118180028
            ],
            [
              16.96236741313249,
              36.47269055987521
            ],
            [
              16.96262563838989,
              36.47308729610891
            ],
            [
              16.96292022494918,
              36.47345783447638
            ],
            [
              16.96324853237303,
              36.473798853769274
            ],
            [
              16.963607617977345,
              36.47410729736453
            ],
            [
              16.963994263207155,
              36.47438040062147
            ],
            [
              16.96440500248513,
              36.47461571566181
            ],
            [
              16.96483615427424,
              36.474811133310524
            ],
            [
              16.96528385407611,
              36.47496490200074
            ],
            [
              16.965744089069254,
              36.47507564347341
            ],
            [
              16.966212734076805,
              36.475142365130914
            ],
            [
              18.31600256217996,
              36.60248784602673
            ],
            [
              18.31650412981618,
              36.60250984891246
            ],
            [
              18.31700537553136,
              36.60248144198195
            ],
            [
              18.31750124568157,
              36.60240291163867
            ],
            [
              18.317986740820242,
              36.6022750496388
            ],
            [
              18.318456966103422,
              36.602099145108596
            ],
            [
              18.318907180640416,
              36.60187697154725
            ],
            [
              18.31933284529226,
              36.6016107689461
            ],
            [
              18.31972966843606,
              36.60130322120472
            ],
            [
              18.320093649233897,
              36.60095742907136
            ],
            [
              18.320421117969907,
              36.60057687888069
            ],
            [
              18.535762163593652,
              36.32330786438519
            ],
            [
              18.53602623796235,
              36.322933648047595
            ],
            [
              18.536254961426483,
              36.3225368373667
            ],
            [
              18.536446414784493,
              36.322120761951375
            ],
            [
              18.536598991565498,
              36.32168891305949
            ],
            [
              18.536711411509085,
              36.32124491430295
            ],
            [
              18.579745922409554,
              36.11128993142265
            ],
            [
              18.57982111583619,
              36.110801412408044
            ],
            [
              18.579847708625753,
              36.11030785622828
            ],
            [
              18.583947194267157,
              35.17447828482532
            ],
            [
              18.58392178020629,
              35.173952425712656
            ],
            [
              18.58384121370548,
              35.17343215393771
            ],
            [
              18.583706388001268,
              35.172923237726195
            ],
            [
              18.583518797899124,
              35.17243131940529
            ],
            [
              18.583280523200614,
              35.171961852847474
            ],
            [
              18.507163363168218,
              35.03973768995688
            ],
            [
              18.50690995878382,
              35.03934178546871
            ],
            [
              18.506620495773674,
              35.03897142711313
            ],
            [
              18.506297532459865,
              35.03862988817871
            ],
            [
              18.505943923245717,
              35.0383201872432
            ],
            [
              18.505562793388105,
              35.03804506149481
            ],
            [
              18.505157511375913,
              35.03780694254055
            ],
            [
              18.50473165915877,
              35.0376079349152
            ],
            [
              18.5042890004892,
              35.03744979748117
            ],
            [
              17.9223494398371,
              34.8599242017895
            ],
            [
              17.921870759623534,
              34.85980365161569
            ],
            [
              17.10863368356711,
              34.697215336152595
            ]
          ]
        ]
      },
      "properties": {
        "layer": "SOURCE_REGION_95",
        "incident_id": "INC_5847827E",
        "title": "95% Source Probability Region"
      }
    },
    {
      "type": "Feature",
      "geometry": {
        "type": "Polygon",
        "coordinates": [
          [
            [
              17.709303605557636,
              34.84126209344414
            ],
            [
              17.708903124359292,
              34.84096748490217
            ],
            [
              17.708475365014657,
              34.84071410509574
            ],
            [
              17.708024556855367,
              34.84050445923543
            ],
            [
              17.707555157100735,
              34.84034062012661
            ],
            [
              17.70707180678843,
              34.84022420767528
            ],
            [
              17.70657928488774,
              34.840156372871746
            ],
            [
              17.70608246104905,
              34.84013778641062
            ],
            [
              17.70558624745676,
              34.84016863205949
            ],
            [
              17.705095550261657,
              34.840248604842024
            ],
            [
              17.70461522107294,
              34.840376914053294
            ],
            [
              17.70415000898952,
              34.84055229107764
            ],
            [
              17.703704513644826,
              34.840773001931666
            ],
            [
              17.70328313972944,
              34.841036864408466
            ],
            [
              17.702890053441145,
              34.84134126965346
            ],
            [
              17.702529141292988,
              34.84168320795863
            ],
            [
              17.097124463500624,
              35.47527830322888
            ],
            [
              17.096810116004622,
              35.47564059064118
            ],
            [
              17.096531929335487,
              35.4760313318528
            ],
            [
              16.982317217700217,
              35.653942073781046
            ],
            [
              16.9820694561127,
              35.65437388666989
            ],
            [
              16.981865864406178,
              35.654828197788234
            ],
            [
              16.981708460973973,
              35.65530050312882
            ],
            [
              16.981598806302223,
              35.655786120290976
            ],
            [
              16.981537987499337,
              35.6562802349016
            ],
            [
              16.981526607518493,
              35.65677794834451
            ],
            [
              16.981564779179983,
              35.657274326324966
            ],
            [
              16.981652124052747,
              35.65776444778789
            ],
            [
              16.981787776206087,
              35.65824345370488
            ],
            [
              16.981970390794462,
              35.65870659524624
            ],
            [
              16.98219815739017,
              35.659149280860525
            ],
            [
              16.9824688179318,
              35.65956712179488
            ],
            [
              17.17574304946633,
              35.92767512231057
            ],
            [
              17.175992414213113,
              35.927993113101394
            ],
            [
              17.54897898535478,
              36.365954665768754
            ],
            [
              17.54930312558398,
              36.36630060918262
            ],
            [
              17.549658572343073,
              36.36661429905372
            ],
            [
              17.550042130254795,
              36.366892915388746
            ],
            [
              17.55045035122965,
              36.36713395349667
            ],
            [
              17.550879565463397,
              36.36733524650533
            ],
            [
              17.551325914427654,
              36.36749498484101
            ],
            [
              17.551785385557114,
              36.36761173249614
            ],
            [
              17.552253848321488,
              36.367684439938536
            ],
            [
              17.55272709135794,
              36.36771245354653
            ],
            [
              17.553200860330193,
              36.367695521484805
            ],
            [
              17.553670896173934,
              36.36763379596835
            ],
            [
              18.116422928524052,
              36.2663932248634
            ],
            [
              18.11688030185534,
              36.266288574585715
            ],
            [
              18.117325852024848,
              36.26614151306376
            ],
            [
              18.117755655659565,
              36.265953335274496
            ],
            [
              18.118165928045453,
              36.26572569825165
            ],
            [
              18.11855305645443,
              36.265460606494415
            ],
            [
              18.118913631956914,
              36.26516039431645
            ],
            [
              18.11924447943977,
              36.264827705290664
            ],
            [
              18.119542685565346,
              36.264465468970755
            ],
            [
              18.119805624425386,
              36.26407687509449
            ],
            [
              18.12003098066396,
              36.26366534549589
            ],
            [
              18.44252359543464,
              35.60292965756985
            ],
            [
              18.44272187222221,
              35.60246529642101
            ],
            [
              18.442872304714733,
              35.60198330572999
            ],
            [
              18.442973358831967,
              35.60148860074069
            ],
            [
              18.443024004044393,
              35.6009862263549
            ],
            [
              18.443023723882348,
              35.600481305685335
            ],
            [
              18.434547942877415,
              35.43465647819404
            ],
            [
              18.434502761852908,
              35.43419454627655
            ],
            [
              18.434414941833957,
              35.43373879407893
            ],
            [
              18.434285239556598,
              35.43329314877084
            ],
            [
              18.43411477265198,
              35.43286145043194
            ],
            [
              18.43390501001584,
              35.432447418962305
            ],
            [
              18.43365775915118,
              35.43205462202839
            ],
            [
              18.43337515059319,
              35.43168644432086
            ],
            [
              18.43305961955067,
              35.43134605838904
            ],
            [
              18.432713884922066,
              35.43103639730341
            ],
            [
              17.709303605557636,
              34.84126209344414
            ]
          ]
        ]
      },
      "properties": {
        "layer": "SOURCE_REGION_50",
        "incident_id": "INC_5847827E",
        "title": "50% Source Probability Region"
      }
    },
    {
      "type": "Feature",
      "geometry": {
        "type": "LineString",
        "coordinates": [
          [
            17.753799842617187,
            35.56788992304687
          ],
          [
            17.7503854553012,
            35.56909802038485
          ],
          [
            17.75183004881518,
            35.57277476164422
          ],
          [
            17.75082278395149,
            35.576365722042695
          ],
          [
            17.744981839874754,
            35.577097954548115
          ],
          [
            17.743094173703042,
            35.578584432343135
          ],
          [
            17.742200548314514,
            35.581581352185154
          ],
          [
            17.73870735644087,
            35.587401192590306
          ],
          [
            17.735223854289586,
            35.59287521600828
          ],
          [
            17.734509656110248,
            35.5964105362521
          ],
          [
            17.732533830892805,
            35.59805705899233
          ],
          [
            17.728850381452787,
            35.600295074549656
          ],
          [
            17.725980941569446,
            35.604896941022766
          ],
          [
            17.726724489431206,
            35.611118593537256
          ],
          [
            17.725195378445562,
            35.61271913076869
          ],
          [
            17.7263671686693,
            35.61647215054199
          ],
          [
            17.72521050971889,
            35.61997134230162
          ],
          [
            17.72477593470495,
            35.622284324217986
          ],
          [
            17.722956740664472,
            35.624852611094994
          ],
          [
            17.721115134434967,
            35.62805083071469
          ],
          [
            17.718979804117822,
            35.6289271514691
          ],
          [
            17.71624754407995,
            35.63187199734603
          ],
          [
            17.71894778731678,
            35.63328589238642
          ],
          [
            17.71458391966644,
            35.634764965819706
          ],
          [
            17.71409955273458,
            35.63405253470434
          ],
          [
            17.71333274706606,
            35.63569079426895
          ],
          [
            17.710514896930533,
            35.6391790007827
          ],
          [
            17.709980423486087,
            35.64179326778872
          ],
          [
            17.706876163308294,
            35.650063356939846
          ],
          [
            17.702765145740187,
            35.65418273251359
          ],
          [
            17.703356750428128,
            35.65595858025332
          ],
          [
            17.7032585074665,
            35.656209176393425
          ],
          [
            17.703075556729743,
            35.65917735289632
          ],
          [
            17.701799582135692,
            35.6582026492563
          ],
          [
            17.702484834501234,
            35.66070510597623
          ],
          [
            17.7047863475118,
            35.664140922303794
          ],
          [
            17.706702013852407,
            35.66776406108363
          ],
          [
            17.709853343743816,
            35.67123344185167
          ],
          [
            17.710563017499595,
            35.67566961281251
          ],
          [
            17.710973583802456,
            35.67793604388827
          ],
          [
            17.714012565784287,
            35.6790086229581
          ],
          [
            17.71460011918751,
            35.68075487651541
          ],
          [
            17.71629636333205,
            35.68418355376202
          ],
          [
            17.71989367220479,
            35.68488261987755
          ],
          [
            17.717926320835545,
            35.68720984666458
          ],
          [
            17.71969599842899,
            35.68955328473315
          ],
          [
            17.719887071605257,
            35.69170933445352
          ],
          [
            17.72476964696361,
            35.69829605480023
          ],
          [
            17.728037652407124,
            35.70205198132041
          ]
        ]
      },
      "properties": {
        "layer": "FORECAST_TRAJECTORY",
        "incident_id": "INC_5847827E",
        "title": "Forward Drift Trajectory (+24h)"
      }
    },
    {
      "type": "Feature",
      "geometry": {
        "type": "Polygon",
        "coordinates": [
          [
            [
              17.678037652407124,
              35.65205198132041
            ],
            [
              17.778037652407125,
              35.65205198132041
            ],
            [
              17.778037652407125,
              35.752051981320406
            ],
            [
              17.678037652407124,
              35.752051981320406
            ],
            [
              17.678037652407124,
              35.65205198132041
            ]
          ]
        ]
      },
      "properties": {
        "layer": "FORECAST_DISPERSION",
        "incident_id": "INC_5847827E",
        "title": "Predicted 24h Dispersion Footprint"
      }
    }
  ],
  "properties": {
    "incident_id": "INC_5847827E",
    "product_id": "5847827e-1714-4492-ab36-39c2913c7f79",
    "provenance": "REAL"
  }
}