{
  "type": "FeatureCollection",
  "features": [
    {
      "type": "Feature",
      "geometry": {
        "type": "Polygon",
        "coordinates": [
          [
            [
              18.117578125,
              34.698437500000004
            ],
            [
              18.508203125,
              34.698437500000004
            ],
            [
              18.508203125,
              34.7
            ],
            [
              18.117578125,
              34.7
            ],
            [
              18.117578125,
              34.698437500000004
            ]
          ]
        ]
      },
      "properties": {
        "layer": "SPILL_DETECTION",
        "area_km2": 0.026,
        "confidence_tier": "HIGH"
      }
    },
    {
      "type": "Feature",
      "geometry": {
        "type": "Polygon",
        "coordinates": [
          [
            [
              18.449579585980736,
              34.71061732019189
            ],
            [
              18.449096038687053,
              34.710512778037874
            ],
            [
              18.448604527193325,
              34.71045653304942
            ],
            [
              18.448109863339017,
              34.71044913585833
            ],
            [
              18.439670807423926,
              34.710740730547286
            ],
            [
              18.43940087677282,
              34.710757375787594
            ],
            [
              18.179447469801115,
              34.73385875060398
            ],
            [
              18.17897160337152,
              34.73392420382943
            ],
            [
              18.178504213693646,
              34.73403501841584
            ],
            [
              18.1780496144561,
              34.73419017161999
            ],
            [
              18.17761200130041,
              34.734388231483436
            ],
            [
              18.177195413098136,
              34.73462737004843
            ],
            [
              18.176803694674838,
              34.7349053802288
            ],
            [
              18.176440461324933,
              34.735219696179804
            ],
            [
              18.176109065445,
              34.73556741697916
            ],
            [
              18.150556599960577,
              34.765097511082416
            ],
            [
              18.150247455764607,
              34.76549332701017
            ],
            [
              18.149979579519442,
              34.76591815956523
            ],
            [
              18.14975567399334,
              34.76636772235055
            ],
            [
              18.149577998306928,
              34.76683747945058
            ],
            [
              18.149448345139525,
              34.767322691196874
            ],
            [
              18.14936802264172,
              34.76781846198959
            ],
            [
              18.149337841236612,
              34.76831978969215
            ],
            [
              18.149358105442968,
              34.76882161610089
            ],
            [
              18.14942861080274,
              34.76931887798039
            ],
            [
              18.149548645943973,
              34.76980655814959
            ],
            [
              18.14971699975827,
              34.7702797361032
            ],
            [
              18.149931973620408,
              34.77073363765768
            ],
            [
              18.15019139852682,
              34.77116368312097
            ],
            [
              18.15049265698,
              34.77156553349978
            ],
            [
              18.150832709398045,
              34.77193513427839
            ],
            [
              18.15120812478288,
              34.772268756327115
            ],
            [
              18.15161511533769,
              34.772563033527824
            ],
            [
              18.152049574684348,
              34.772814996736784
            ],
            [
              18.152507119295176,
              34.773022103742136
            ],
            [
              18.16014182321494,
              34.77602564897544
            ],
            [
              18.16056129480662,
              34.776169538801994
            ],
            [
              18.16099186597559,
              34.77627569513419
            ],
            [
              18.161430149664774,
              34.776343282900896
            ],
            [
              18.161872698147114,
              34.77637177042782
            ],
            [
              18.171242608753893,
              34.776558461141015
            ],
            [
              18.171361725432234,
              34.776559415229414
            ],
            [
              18.172403063750664,
              34.7765553510665
            ],
            [
              18.17270612399603,
              34.77654497288297
            ],
            [
              18.309075217684217,
              34.76772877544121
            ],
            [
              18.309308596157834,
              34.76770818723589
            ],
            [
              18.34142105602315,
              34.76411530638804
            ],
            [
              18.341671004349376,
              34.76408093582009
            ],
            [
              18.444054723727202,
              34.747360081553886
            ],
            [
              18.444492884643523,
              34.74726821508886
            ],
            [
              18.444921071943288,
              34.7471375243382
            ],
            [
              18.445335852858577,
              34.74696905704672
            ],
            [
              18.478782683651687,
              34.731605790551534
            ],
            [
              18.479233085337164,
              34.731370489019845
            ],
            [
              18.47965727753496,
              34.73109068646729
            ],
            [
              18.48005087870467,
              34.730769273013465
            ],
            [
              18.480409823284877,
              34.73040956858281
            ],
            [
              18.480730403686913,
              34.730015288612584
            ],
            [
              18.481009308591066,
              34.729590505675624
            ],
            [
              18.48124365714966,
              34.729139607414176
            ],
            [
              18.48143102874372,
              34.728667251219306
            ],
            [
              18.481569487985904,
              34.72817831612408
            ],
            [
              18.48165760471138,
              34.727677852407325
            ],
            [
              18.48213598976661,
              34.72382229187989
            ],
            [
              18.482172080002005,
              34.72334656384629
            ],
            [
              18.482162664136116,
              34.722869561740936
            ],
            [
              18.482107827898393,
              34.72239562856624
            ],
            [
              18.48200807056108,
              34.72192907938266
            ],
            [
              18.481864300393458,
              34.72147416202099
            ],
            [
              18.481677826392225,
              34.721035018406766
            ],
            [
              18.481450346363395,
              34.72061564684893
            ],
            [
              18.481183931464102,
              34.72021986563603
            ],
            [
              18.480881007345168,
              34.719851278271605
            ],
            [
              18.48054433206608,
              34.71951324066497
            ],
            [
              18.480176970983436,
              34.71920883057644
            ],
            [
              18.47978226884153,
              34.71894081959491
            ],
            [
              18.47936381931916,
              34.71871164790321
            ],
            [
              18.47892543230997,
              34.71852340206071
            ],
            [
              18.478471099234163,
              34.71837779600565
            ],
            [
              18.449579585980736,
              34.71061732019189
            ]
          ]
        ]
      },
      "properties": {
        "layer": "HINDCAST_ORIGIN_95",
        "lookback_hours": 8.707327246691811
      }
    },
    {
      "type": "Feature",
      "geometry": {
        "type": "Polygon",
        "coordinates": [
          [
            [
              18.28474772283246,
              34.635326474051745
            ],
            [
              18.284246727617173,
              34.635347211906996
            ],
            [
              18.283750328745544,
              34.635418024509185
            ],
            [
              18.283263518526137,
              34.635538199692405
            ],
            [
              18.282791192833944,
              34.63570652884875
            ],
            [
              18.28233810187234,
              34.635921319083394
            ],
            [
              18.281908802400046,
              34.636180410240065
            ],
            [
              18.28150761190356,
              34.636481196625915
            ],
            [
              18.281138565176,
              34.63682065321704
            ],
            [
              18.274506838137277,
              34.64356505579522
            ],
            [
              18.274174181546975,
              34.64393910282484
            ],
            [
              18.268828680945482,
              34.65059259247222
            ],
            [
              18.268532386453476,
              34.65100219109016
            ],
            [
              18.268278966387463,
              34.651439615053775
            ],
            [
              18.268071011323467,
              34.651900392814916
            ],
            [
              18.26791064707342,
              34.65237981409221
            ],
            [
              18.267799512954166,
              34.65287297802169
            ],
            [
              18.26773874502958,
              34.65337484325574
            ],
            [
              18.267728964497234,
              34.653880279498004
            ],
            [
              18.267770271338208,
              34.65438411994764
            ],
            [
              18.267862243295045,
              34.65488121411675
            ],
            [
              18.268003940188272,
              34.655366480480986
            ],
            [
              18.268193913527327,
              34.65583495842524
            ],
            [
              18.268430221317697,
              34.65628185895334
            ],
            [
              18.273851407726124,
              34.66538816592349
            ],
            [
              18.27411164991882,
              34.66578178331124
            ],
            [
              18.2744078390116,
              34.66614911513414
            ],
            [
              18.274737337018273,
              34.66648688977853
            ],
            [
              18.27509720928926,
              34.666792098879604
            ],
            [
              18.27548425064886,
              34.6670620241151
            ],
            [
              18.29770289226191,
              34.68104711355958
            ],
            [
              18.29809995203202,
              34.681272408784956
            ],
            [
              18.298515905842685,
              34.68146054922988
            ],
            [
              18.298947286063346,
              34.68160996644724
            ],
            [
              18.29939049646002,
              34.68171941480904
            ],
            [
              18.299841842175553,
              34.6817879818907
            ],
            [
              18.3002975605321,
              34.68181509607754
            ],
            [
              18.300753852398948,
              34.681800531330076
            ],
            [
              18.30588330992442,
              34.681401801817564
            ],
            [
              18.30633513166304,
              34.6813458908171
            ],
            [
              18.306779994810693,
              34.68124911425317
            ],
            [
              18.30721421111515,
              34.68111227447675
            ],
            [
              18.30763418059457,
              34.68093650599317
            ],
            [
              18.308036421384074,
              34.680723266056184
            ],
            [
              18.30841759860305,
              34.6804743225863
            ],
            [
              18.319910260766527,
              34.672198477058735
            ],
            [
              18.320304816084775,
              34.67188290289706
            ],
            [
              18.320665510104714,
              34.67152912220984
            ],
            [
              18.320988659982415,
              34.67114074725285
            ],
            [
              18.32127096621607,
              34.67072174350452
            ],
            [
              18.321509546335378,
              34.670276389176664
            ],
            [
              18.321701964332817,
              34.66980923153204
            ],
            [
              18.32184625553635,
              34.66932504045482
            ],
            [
              18.321940946669585,
              34.66882875974801
            ],
            [
              18.321985070894574,
              34.66832545665499
            ],
            [
              18.321978177683654,
              34.66782027012081
            ],
            [
              18.32192033741952,
              34.66731835832127
            ],
            [
              18.321812140676617,
              34.66682484599569
            ],
            [
              18.314282230391274,
              34.639227825769936
            ],
            [
              18.314127337829476,
              34.63875440580469
            ],
            [
              18.313926108967078,
              34.63829874681583
            ],
            [
              18.313680540945555,
              34.637865371094314
            ],
            [
              18.313393070960426,
              34.63745857977577
            ],
            [
              18.313066552072748,
              34.63708241015288
            ],
            [
              18.312704224893263,
              34.636740595606376
            ],
            [
              18.31230968542023,
              34.63643652855223
            ],
            [
              18.31188684935012,
              34.63617322677289
            ],
            [
              18.31143991321539,
              34.63595330346656
            ],
            [
              18.31097331273507,
              34.63577894131196
            ],
            [
              18.310491678791426,
              34.635651870805845
            ],
            [
              18.309999791469757,
              34.63557335308826
            ],
            [
              18.309502532617326,
              34.635544167426104
            ],
            [
              18.28474772283246,
              34.635326474051745
            ]
          ]
        ]
      },
      "properties": {
        "layer": "FORECAST_PROJECTION_12H",
        "forecast_hours": 12.0
      }
    },
    {
      "type": "Feature",
      "geometry": {
        "type": "LineString",
        "coordinates": [
          [
            16.955,
            33.379
          ],
          [
            16.97087,
            33.39226
          ],
          [
            16.98675,
            33.40551
          ],
          [
            17.00263,
            33.41877
          ],
          [
            17.01851,
            33.43202
          ],
          [
            17.0344,
            33.44528
          ],
          [
            17.05028,
            33.45854
          ],
          [
            17.06617,
            33.47179
          ],
          [
            17.08206,
            33.48505
          ],
          [
            17.09796,
            33.4983
          ],
          [
            17.11385,
            33.51156
          ],
          [
            17.12975,
            33.52482
          ],
          [
            17.14565,
            33.53807
          ],
          [
            17.16156,
            33.55133
          ],
          [
            17.17746,
            33.56458
          ],
          [
            17.19337,
            33.57784
          ],
          [
            17.20928,
            33.5911
          ],
          [
            17.2252,
            33.60435
          ],
          [
            17.24111,
            33.61761
          ],
          [
            17.25703,
            33.63086
          ],
          [
            17.27295,
            33.64412
          ],
          [
            17.28887,
            33.65738
          ],
          [
            17.3048,
            33.67063
          ],
          [
            17.32073,
            33.68389
          ],
          [
            17.33666,
            33.69714
          ],
          [
            17.35259,
            33.7104
          ],
          [
            17.36853,
            33.72366
          ],
          [
            17.38447,
            33.73691
          ],
          [
            17.40041,
            33.75017
          ],
          [
            17.41635,
            33.76342
          ],
          [
            17.43229,
            33.77668
          ],
          [
            17.44824,
            33.78994
          ],
          [
            17.46419,
            33.80319
          ],
          [
            17.48014,
            33.81645
          ],
          [
            17.4961,
            33.8297
          ],
          [
            17.51206,
            33.84296
          ],
          [
            17.52802,
            33.85622
          ],
          [
            17.54398,
            33.86947
          ],
          [
            17.55995,
            33.88273
          ],
          [
            17.57591,
            33.89598
          ],
          [
            17.59188,
            33.90924
          ],
          [
            17.60786,
            33.92249
          ],
          [
            17.62383,
            33.93575
          ],
          [
            17.63981,
            33.94901
          ],
          [
            17.65579,
            33.96226
          ],
          [
            17.67177,
            33.97552
          ],
          [
            17.68776,
            33.98877
          ],
          [
            17.70374,
            34.00203
          ],
          [
            17.71973,
            34.01529
          ],
          [
            17.73573,
            34.02854
          ],
          [
            17.75172,
            34.0418
          ],
          [
            17.76772,
            34.05505
          ],
          [
            17.78372,
            34.06831
          ],
          [
            17.79972,
            34.08157
          ],
          [
            17.81573,
            34.09482
          ],
          [
            17.83173,
            34.10808
          ],
          [
            17.84774,
            34.12133
          ],
          [
            17.86376,
            34.13459
          ],
          [
            17.87977,
            34.14785
          ],
          [
            17.89579,
            34.1611
          ],
          [
            17.91181,
            34.17436
          ],
          [
            17.92783,
            34.18761
          ],
          [
            17.94386,
            34.20087
          ],
          [
            17.95988,
            34.21413
          ],
          [
            17.97591,
            34.22738
          ],
          [
            17.99195,
            34.24064
          ],
          [
            18.00798,
            34.25389
          ],
          [
            18.02402,
            34.26715
          ],
          [
            18.04006,
            34.28041
          ],
          [
            18.0561,
            34.29366
          ],
          [
            18.07215,
            34.30692
          ],
          [
            18.08819,
            34.32017
          ],
          [
            18.10425,
            34.33343
          ],
          [
            18.1203,
            34.34669
          ],
          [
            18.13635,
            34.35994
          ],
          [
            18.15241,
            34.3732
          ],
          [
            18.16847,
            34.38645
          ],
          [
            18.18453,
            34.39971
          ],
          [
            18.2006,
            34.41297
          ],
          [
            18.21667,
            34.42622
          ],
          [
            18.23274,
            34.43948
          ],
          [
            18.24881,
            34.45273
          ],
          [
            18.26489,
            34.46599
          ],
          [
            18.28097,
            34.47925
          ],
          [
            18.29705,
            34.4925
          ],
          [
            18.31313,
            34.50576
          ],
          [
            18.32922,
            34.51901
          ],
          [
            18.34531,
            34.53227
          ],
          [
            18.3614,
            34.54553
          ],
          [
            18.37749,
            34.55878
          ],
          [
            18.39359,
            34.57204
          ],
          [
            18.40969,
            34.58529
          ],
          [
            18.42579,
            34.59855
          ],
          [
            18.44189,
            34.61181
          ],
          [
            18.458,
            34.62506
          ],
          [
            18.47411,
            34.63832
          ],
          [
            18.49022,
            34.65157
          ],
          [
            18.50633,
            34.66483
          ],
          [
            18.52245,
            34.67809
          ],
          [
            18.53857,
            34.69134
          ],
          [
            18.55469,
            34.7046
          ],
          [
            18.57081,
            34.71785
          ],
          [
            18.58694,
            34.73111
          ],
          [
            18.60307,
            34.74437
          ],
          [
            18.6192,
            34.75762
          ],
          [
            18.63534,
            34.77088
          ],
          [
            18.65148,
            34.78413
          ],
          [
            18.66762,
            34.79739
          ],
          [
            18.68376,
            34.81065
          ],
          [
            18.6999,
            34.8239
          ],
          [
            18.71605,
            34.83716
          ],
          [
            18.7322,
            34.85041
          ],
          [
            18.74836,
            34.86367
          ],
          [
            18.76451,
            34.87693
          ],
          [
            18.78067,
            34.89018
          ],
          [
            18.79683,
            34.90344
          ],
          [
            18.81299,
            34.91669
          ],
          [
            18.82916,
            34.92995
          ],
          [
            18.84533,
            34.9432
          ],
          [
            18.8615,
            34.95646
          ],
          [
            18.87767,
            34.96972
          ],
          [
            18.89385,
            34.98297
          ],
          [
            18.91003,
            34.99623
          ],
          [
            18.92621,
            35.00948
          ],
          [
            18.9424,
            35.02274
          ],
          [
            18.95858,
            35.036
          ],
          [
            18.97477,
            35.04925
          ],
          [
            18.99097,
            35.06251
          ],
          [
            19.00716,
            35.07576
          ],
          [
            19.02336,
            35.08902
          ],
          [
            19.03956,
            35.10228
          ],
          [
            19.05576,
            35.11553
          ],
          [
            19.07197,
            35.12879
          ],
          [
            19.08817,
            35.14204
          ],
          [
            19.10439,
            35.1553
          ],
          [
            19.1206,
            35.16856
          ],
          [
            19.13681,
            35.18181
          ],
          [
            19.15303,
            35.19507
          ],
          [
            19.16925,
            35.20832
          ],
          [
            19.18548,
            35.22158
          ],
          [
            19.20171,
            35.23484
          ],
          [
            19.21793,
            35.24809
          ],
          [
            19.23417,
            35.26135
          ],
          [
            19.2504,
            35.2746
          ],
          [
            19.26664,
            35.28786
          ],
          [
            19.28288,
            35.30112
          ],
          [
            19.29912,
            35.31437
          ],
          [
            19.31537,
            35.32763
          ],
          [
            19.33161,
            35.34088
          ],
          [
            19.34786,
            35.35414
          ],
          [
            19.36412,
            35.3674
          ],
          [
            19.38037,
            35.38065
          ],
          [
            19.39663,
            35.39391
          ],
          [
            19.41289,
            35.40716
          ],
          [
            19.42916,
            35.42042
          ],
          [
            19.44542,
            35.43368
          ],
          [
            19.46169,
            35.44693
          ],
          [
            19.47796,
            35.46019
          ],
          [
            19.49424,
            35.47344
          ],
          [
            19.51052,
            35.4867
          ],
          [
            19.5268,
            35.49996
          ],
          [
            19.54308,
            35.51321
          ],
          [
            19.55936,
            35.52647
          ],
          [
            19.57565,
            35.53972
          ],
          [
            19.59194,
            35.55298
          ],
          [
            19.60824,
            35.56624
          ],
          [
            19.62453,
            35.57949
          ],
          [
            19.64083,
            35.59275
          ],
          [
            19.65713,
            35.606
          ],
          [
            19.67344,
            35.61926
          ],
          [
            19.68974,
            35.63252
          ],
          [
            19.70605,
            35.64577
          ],
          [
            19.72237,
            35.65903
          ],
          [
            19.73868,
            35.67228
          ],
          [
            19.755,
            35.68554
          ],
          [
            19.77132,
            35.6988
          ],
          [
            19.78764,
            35.71205
          ],
          [
            19.80397,
            35.72531
          ],
          [
            19.8203,
            35.73856
          ],
          [
            19.83663,
            35.75182
          ],
          [
            19.85296,
            35.76508
          ],
          [
            19.8693,
            35.77833
          ],
          [
            19.88564,
            35.79159
          ],
          [
            19.90198,
            35.80484
          ],
          [
            19.91833,
            35.8181
          ],
          [
            19.93467,
            35.83136
          ],
          [
            19.95102,
            35.84461
          ],
          [
            19.96738,
            35.85787
          ],
          [
            19.98373,
            35.87112
          ],
          [
            20.00009,
            35.88438
          ],
          [
            20.01645,
            35.89764
          ],
          [
            20.03282,
            35.91089
          ],
          [
            20.04918,
            35.92415
          ],
          [
            20.06555,
            35.9374
          ],
          [
            20.08193,
            35.95066
          ],
          [
            20.0983,
            35.96391
          ],
          [
            20.11468,
            35.97717
          ],
          [
            20.13106,
            35.99043
          ],
          [
            20.14744,
            36.00368
          ],
          [
            20.16383,
            36.01694
          ],
          [
            20.18022,
            36.03019
          ],
          [
            20.19661,
            36.04345
          ],
          [
            20.213,
            36.05671
          ],
          [
            20.2294,
            36.06996
          ],
          [
            20.2458,
            36.08322
          ],
          [
            20.2622,
            36.09647
          ],
          [
            20.27861,
            36.10973
          ],
          [
            20.29502,
            36.12299
          ],
          [
            20.31143,
            36.13624
          ],
          [
            20.32784,
            36.1495
          ],
          [
            20.34426,
            36.16275
          ],
          [
            20.36068,
            36.17601
          ],
          [
            20.3771,
            36.18927
          ],
          [
            20.39352,
            36.20252
          ],
          [
            20.40995,
            36.21578
          ],
          [
            20.42638,
            36.22903
          ],
          [
            20.44281,
            36.24229
          ]
        ]
      },
      "properties": {
        "mmsi": 240111001,
        "vessel_name": "AEGEAN VOYAGER",
        "layer": "CANDIDATE_VESSEL_TRACK",
        "composite_score": 0.674,
        "decision": "PLAUSIBLE_CANDIDATE"
      }
    },
    {
      "type": "Feature",
      "geometry": {
        "type": "LineString",
        "coordinates": [
          [
            18.6,
            33.8
          ],
          [
            18.58346,
            33.81375
          ],
          [
            18.56691,
            33.82749
          ],
          [
            18.55036,
            33.84124
          ],
          [
            18.53381,
            33.85499
          ],
          [
            18.51726,
            33.86873
          ],
          [
            18.5007,
            33.88248
          ],
          [
            18.48414,
            33.89623
          ],
          [
            18.46758,
            33.90998
          ],
          [
            18.45102,
            33.92372
          ],
          [
            18.43445,
            33.93747
          ],
          [
            18.41788,
            33.95122
          ],
          [
            18.40131,
            33.96496
          ],
          [
            18.38473,
            33.97871
          ],
          [
            18.36816,
            33.99246
          ],
          [
            18.35158,
            34.0062
          ],
          [
            18.33499,
            34.01995
          ],
          [
            18.31841,
            34.0337
          ],
          [
            18.30182,
            34.04744
          ],
          [
            18.28523,
            34.06119
          ],
          [
            18.26863,
            34.07494
          ],
          [
            18.25204,
            34.08869
          ],
          [
            18.23544,
            34.10243
          ],
          [
            18.21884,
            34.11618
          ],
          [
            18.20223,
            34.12993
          ],
          [
            18.18562,
            34.14367
          ],
          [
            18.16901,
            34.15742
          ],
          [
            18.1524,
            34.17117
          ],
          [
            18.13579,
            34.18491
          ],
          [
            18.11917,
            34.19866
          ],
          [
            18.10255,
            34.21241
          ],
          [
            18.08592,
            34.22616
          ],
          [
            18.0693,
            34.2399
          ],
          [
            18.05267,
            34.25365
          ],
          [
            18.03604,
            34.2674
          ],
          [
            18.0194,
            34.28114
          ],
          [
            18.00277,
            34.29489
          ],
          [
            17.98613,
            34.30864
          ],
          [
            17.96948,
            34.32238
          ],
          [
            17.95284,
            34.33613
          ],
          [
            17.93619,
            34.34988
          ],
          [
            17.91954,
            34.36362
          ],
          [
            17.90289,
            34.37737
          ],
          [
            17.88623,
            34.39112
          ],
          [
            17.86957,
            34.40487
          ],
          [
            17.85291,
            34.41861
          ],
          [
            17.83625,
            34.43236
          ],
          [
            17.81958,
            34.44611
          ],
          [
            17.80291,
            34.45985
          ],
          [
            17.78624,
            34.4736
          ],
          [
            17.76956,
            34.48735
          ],
          [
            17.75288,
            34.50109
          ],
          [
            17.7362,
            34.51484
          ],
          [
            17.71952,
            34.52859
          ],
          [
            17.70283,
            34.54233
          ],
          [
            17.68614,
            34.55608
          ],
          [
            17.66945,
            34.56983
          ],
          [
            17.65276,
            34.58358
          ],
          [
            17.63606,
            34.59732
          ],
          [
            17.61936,
            34.61107
          ],
          [
            17.60266,
            34.62482
          ],
          [
            17.58595,
            34.63856
          ],
          [
            17.56924,
            34.65231
          ],
          [
            17.55253,
            34.66606
          ],
          [
            17.53582,
            34.6798
          ],
          [
            17.5191,
            34.69355
          ],
          [
            17.50238,
            34.7073
          ],
          [
            17.48566,
            34.72104
          ],
          [
            17.46893,
            34.73479
          ],
          [
            17.4522,
            34.74854
          ],
          [
            17.43547,
            34.76229
          ],
          [
            17.41874,
            34.77603
          ],
          [
            17.402,
            34.78978
          ],
          [
            17.38527,
            34.80353
          ],
          [
            17.36852,
            34.81727
          ],
          [
            17.35178,
            34.83102
          ],
          [
            17.33503,
            34.84477
          ],
          [
            17.31828,
            34.85851
          ],
          [
            17.30153,
            34.87226
          ],
          [
            17.28477,
            34.88601
          ],
          [
            17.26801,
            34.89975
          ],
          [
            17.25125,
            34.9135
          ],
          [
            17.23449,
            34.92725
          ],
          [
            17.21772,
            34.941
          ],
          [
            17.20095,
            34.95474
          ],
          [
            17.18418,
            34.96849
          ],
          [
            17.1674,
            34.98224
          ],
          [
            17.15063,
            34.99598
          ],
          [
            17.13384,
            35.00973
          ],
          [
            17.11706,
            35.02348
          ],
          [
            17.10027,
            35.03722
          ],
          [
            17.08348,
            35.05097
          ],
          [
            17.06669,
            35.06472
          ],
          [
            17.0499,
            35.07847
          ],
          [
            17.0331,
            35.09221
          ],
          [
            17.0163,
            35.10596
          ],
          [
            16.99949,
            35.11971
          ],
          [
            16.98269,
            35.13345
          ],
          [
            16.96588,
            35.1472
          ],
          [
            16.94907,
            35.16095
          ],
          [
            16.93225,
            35.17469
          ],
          [
            16.91543,
            35.18844
          ],
          [
            16.89861,
            35.20219
          ],
          [
            16.88179,
            35.21593
          ],
          [
            16.86496,
            35.22968
          ],
          [
            16.84813,
            35.24343
          ],
          [
            16.8313,
            35.25718
          ],
          [
            16.81447,
            35.27092
          ],
          [
            16.79763,
            35.28467
          ],
          [
            16.78079,
            35.29842
          ],
          [
            16.76394,
            35.31216
          ],
          [
            16.7471,
            35.32591
          ],
          [
            16.73025,
            35.33966
          ],
          [
            16.7134,
            35.3534
          ],
          [
            16.69654,
            35.36715
          ],
          [
            16.67968,
            35.3809
          ],
          [
            16.66282,
            35.39464
          ],
          [
            16.64596,
            35.40839
          ],
          [
            16.62909,
            35.42214
          ],
          [
            16.61222,
            35.43589
          ],
          [
            16.59535,
            35.44963
          ],
          [
            16.57848,
            35.46338
          ],
          [
            16.5616,
            35.47713
          ],
          [
            16.54472,
            35.49087
          ],
          [
            16.52783,
            35.50462
          ],
          [
            16.51095,
            35.51837
          ],
          [
            16.49406,
            35.53211
          ],
          [
            16.47716,
            35.54586
          ],
          [
            16.46027,
            35.55961
          ],
          [
            16.44337,
            35.57335
          ],
          [
            16.42647,
            35.5871
          ],
          [
            16.40956,
            35.60085
          ],
          [
            16.39266,
            35.6146
          ],
          [
            16.37575,
            35.62834
          ],
          [
            16.35883,
            35.64209
          ],
          [
            16.34192,
            35.65584
          ],
          [
            16.325,
            35.66958
          ],
          [
            16.30808,
            35.68333
          ],
          [
            16.29115,
            35.69708
          ],
          [
            16.27423,
            35.71082
          ],
          [
            16.2573,
            35.72457
          ],
          [
            16.24036,
            35.73832
          ],
          [
            16.22343,
            35.75206
          ],
          [
            16.20649,
            35.76581
          ],
          [
            16.18955,
            35.77956
          ],
          [
            16.1726,
            35.79331
          ],
          [
            16.15565,
            35.80705
          ],
          [
            16.1387,
            35.8208
          ],
          [
            16.12175,
            35.83455
          ],
          [
            16.10479,
            35.84829
          ],
          [
            16.08783,
            35.86204
          ],
          [
            16.07087,
            35.87579
          ],
          [
            16.05391,
            35.88953
          ],
          [
            16.03694,
            35.90328
          ],
          [
            16.01997,
            35.91703
          ],
          [
            16.00299,
            35.93078
          ],
          [
            15.98601,
            35.94452
          ],
          [
            15.96903,
            35.95827
          ],
          [
            15.95205,
            35.97202
          ],
          [
            15.93506,
            35.98576
          ],
          [
            15.91808,
            35.99951
          ],
          [
            15.90108,
            36.01326
          ],
          [
            15.88409,
            36.027
          ],
          [
            15.86709,
            36.04075
          ],
          [
            15.85009,
            36.0545
          ],
          [
            15.83309,
            36.06824
          ],
          [
            15.81608,
            36.08199
          ],
          [
            15.79907,
            36.09574
          ],
          [
            15.78206,
            36.10949
          ],
          [
            15.76504,
            36.12323
          ],
          [
            15.74802,
            36.13698
          ],
          [
            15.731,
            36.15073
          ],
          [
            15.71397,
            36.16447
          ],
          [
            15.69695,
            36.17822
          ],
          [
            15.67992,
            36.19197
          ],
          [
            15.66288,
            36.20571
          ],
          [
            15.64585,
            36.21946
          ],
          [
            15.62881,
            36.23321
          ],
          [
            15.61176,
            36.24695
          ],
          [
            15.59472,
            36.2607
          ],
          [
            15.57767,
            36.27445
          ],
          [
            15.56062,
            36.2882
          ],
          [
            15.54356,
            36.30194
          ],
          [
            15.52651,
            36.31569
          ],
          [
            15.50944,
            36.32944
          ],
          [
            15.49238,
            36.34318
          ],
          [
            15.47531,
            36.35693
          ],
          [
            15.45824,
            36.37068
          ],
          [
            15.44117,
            36.38442
          ],
          [
            15.4241,
            36.39817
          ],
          [
            15.40702,
            36.41192
          ],
          [
            15.38994,
            36.42566
          ],
          [
            15.37285,
            36.43941
          ],
          [
            15.35576,
            36.45316
          ],
          [
            15.33867,
            36.46691
          ],
          [
            15.32158,
            36.48065
          ],
          [
            15.30448,
            36.4944
          ],
          [
            15.28738,
            36.50815
          ],
          [
            15.27028,
            36.52189
          ],
          [
            15.25317,
            36.53564
          ],
          [
            15.23606,
            36.54939
          ],
          [
            15.21895,
            36.56313
          ],
          [
            15.20184,
            36.57688
          ],
          [
            15.18472,
            36.59063
          ],
          [
            15.1676,
            36.60437
          ],
          [
            15.15047,
            36.61812
          ],
          [
            15.13334,
            36.63187
          ],
          [
            15.11621,
            36.64562
          ],
          [
            15.09908,
            36.65936
          ],
          [
            15.08194,
            36.67311
          ],
          [
            15.0648,
            36.68686
          ],
          [
            15.04766,
            36.7006
          ],
          [
            15.03052,
            36.71435
          ],
          [
            15.01337,
            36.7281
          ],
          [
            14.99621,
            36.74184
          ],
          [
            14.97906,
            36.75559
          ],
          [
            14.9619,
            36.76934
          ]
        ]
      },
      "properties": {
        "mmsi": 240111002,
        "vessel_name": "CARGO PIONEER",
        "layer": "CANDIDATE_VESSEL_TRACK",
        "composite_score": 0.32,
        "decision": "EXONERATED_SPATIALLY_DISJOINT"
      }
    },
    {
      "type": "Feature",
      "geometry": {
        "type": "LineString",
        "coordinates": [
          [
            19.1,
            34.8
          ],
          [
            19.08206,
            34.78527
          ],
          [
            19.06413,
            34.77054
          ],
          [
            19.0462,
            34.75581
          ],
          [
            19.02827,
            34.74108
          ],
          [
            19.01035,
            34.72636
          ],
          [
            18.99243,
            34.71163
          ],
          [
            18.97451,
            34.6969
          ],
          [
            18.95659,
            34.68217
          ],
          [
            18.93868,
            34.66744
          ],
          [
            18.92078,
            34.65271
          ],
          [
            18.90287,
            34.63798
          ],
          [
            18.88497,
            34.62325
          ],
          [
            18.86707,
            34.60852
          ],
          [
            18.84917,
            34.5938
          ],
          [
            18.83128,
            34.57907
          ],
          [
            18.81339,
            34.56434
          ],
          [
            18.79551,
            34.54961
          ],
          [
            18.77762,
            34.53488
          ],
          [
            18.75974,
            34.52015
          ],
          [
            18.74187,
            34.50542
          ],
          [
            18.724,
            34.49069
          ],
          [
            18.70612,
            34.47597
          ],
          [
            18.68826,
            34.46124
          ],
          [
            18.67039,
            34.44651
          ],
          [
            18.65253,
            34.43178
          ],
          [
            18.63468,
            34.41705
          ],
          [
            18.61682,
            34.40232
          ],
          [
            18.59897,
            34.38759
          ],
          [
            18.58112,
            34.37286
          ],
          [
            18.56328,
            34.35813
          ],
          [
            18.54544,
            34.34341
          ],
          [
            18.5276,
            34.32868
          ],
          [
            18.50976,
            34.31395
          ],
          [
            18.49193,
            34.29922
          ],
          [
            18.4741,
            34.28449
          ],
          [
            18.45627,
            34.26976
          ],
          [
            18.43845,
            34.25503
          ],
          [
            18.42063,
            34.2403
          ],
          [
            18.40281,
            34.22557
          ],
          [
            18.385,
            34.21085
          ],
          [
            18.36719,
            34.19612
          ],
          [
            18.34938,
            34.18139
          ],
          [
            18.33158,
            34.16666
          ],
          [
            18.31378,
            34.15193
          ],
          [
            18.29598,
            34.1372
          ],
          [
            18.27818,
            34.12247
          ],
          [
            18.26039,
            34.10774
          ],
          [
            18.2426,
            34.09301
          ],
          [
            18.22482,
            34.07829
          ],
          [
            18.20703,
            34.06356
          ],
          [
            18.18926,
            34.04883
          ],
          [
            18.17148,
            34.0341
          ],
          [
            18.15371,
            34.01937
          ],
          [
            18.13594,
            34.00464
          ],
          [
            18.11817,
            33.98991
          ],
          [
            18.1004,
            33.97518
          ],
          [
            18.08264,
            33.96045
          ],
          [
            18.06488,
            33.94573
          ],
          [
            18.04713,
            33.931
          ],
          [
            18.02938,
            33.91627
          ],
          [
            18.01163,
            33.90154
          ],
          [
            17.99388,
            33.88681
          ],
          [
            17.97614,
            33.87208
          ],
          [
            17.9584,
            33.85735
          ],
          [
            17.94067,
            33.84262
          ],
          [
            17.92293,
            33.8279
          ],
          [
            17.9052,
            33.81317
          ],
          [
            17.88747,
            33.79844
          ],
          [
            17.86975,
            33.78371
          ],
          [
            17.85203,
            33.76898
          ],
          [
            17.83431,
            33.75425
          ],
          [
            17.8166,
            33.73952
          ],
          [
            17.79888,
            33.72479
          ],
          [
            17.78117,
            33.71006
          ],
          [
            17.76347,
            33.69534
          ],
          [
            17.74577,
            33.68061
          ],
          [
            17.72807,
            33.66588
          ],
          [
            17.71037,
            33.65115
          ],
          [
            17.69267,
            33.63642
          ],
          [
            17.67498,
            33.62169
          ],
          [
            17.6573,
            33.60696
          ],
          [
            17.63961,
            33.59223
          ],
          [
            17.62193,
            33.5775
          ],
          [
            17.60425,
            33.56278
          ],
          [
            17.58657,
            33.54805
          ],
          [
            17.5689,
            33.53332
          ],
          [
            17.55123,
            33.51859
          ],
          [
            17.53357,
            33.50386
          ],
          [
            17.5159,
            33.48913
          ],
          [
            17.49824,
            33.4744
          ],
          [
            17.48058,
            33.45967
          ],
          [
            17.46293,
            33.44494
          ],
          [
            17.44528,
            33.43022
          ],
          [
            17.42763,
            33.41549
          ],
          [
            17.40998,
            33.40076
          ],
          [
            17.39234,
            33.38603
          ],
          [
            17.3747,
            33.3713
          ],
          [
            17.35706,
            33.35657
          ],
          [
            17.33943,
            33.34184
          ],
          [
            17.3218,
            33.32711
          ],
          [
            17.30417,
            33.31239
          ],
          [
            17.28655,
            33.29766
          ],
          [
            17.26892,
            33.28293
          ],
          [
            17.25131,
            33.2682
          ],
          [
            17.23369,
            33.25347
          ],
          [
            17.21608,
            33.23874
          ],
          [
            17.19847,
            33.22401
          ],
          [
            17.18086,
            33.20928
          ],
          [
            17.16326,
            33.19455
          ],
          [
            17.14565,
            33.17983
          ],
          [
            17.12806,
            33.1651
          ],
          [
            17.11046,
            33.15037
          ],
          [
            17.09287,
            33.13564
          ],
          [
            17.07528,
            33.12091
          ],
          [
            17.05769,
            33.10618
          ],
          [
            17.04011,
            33.09145
          ],
          [
            17.02253,
            33.07672
          ],
          [
            17.00495,
            33.06199
          ],
          [
            16.98738,
            33.04727
          ],
          [
            16.96981,
            33.03254
          ],
          [
            16.95224,
            33.01781
          ],
          [
            16.93467,
            33.00308
          ],
          [
            16.91711,
            32.98835
          ],
          [
            16.89955,
            32.97362
          ],
          [
            16.88199,
            32.95889
          ],
          [
            16.86444,
            32.94416
          ],
          [
            16.84689,
            32.92943
          ],
          [
            16.82934,
            32.91471
          ],
          [
            16.81179,
            32.89998
          ],
          [
            16.79425,
            32.88525
          ],
          [
            16.77671,
            32.87052
          ],
          [
            16.75918,
            32.85579
          ],
          [
            16.74164,
            32.84106
          ],
          [
            16.72411,
            32.82633
          ],
          [
            16.70658,
            32.8116
          ],
          [
            16.68906,
            32.79688
          ],
          [
            16.67154,
            32.78215
          ],
          [
            16.65402,
            32.76742
          ],
          [
            16.6365,
            32.75269
          ],
          [
            16.61899,
            32.73796
          ],
          [
            16.60148,
            32.72323
          ],
          [
            16.58397,
            32.7085
          ],
          [
            16.56647,
            32.69377
          ],
          [
            16.54896,
            32.67904
          ],
          [
            16.53147,
            32.66432
          ],
          [
            16.51397,
            32.64959
          ],
          [
            16.49648,
            32.63486
          ],
          [
            16.47899,
            32.62013
          ],
          [
            16.4615,
            32.6054
          ],
          [
            16.44402,
            32.59067
          ],
          [
            16.42653,
            32.57594
          ],
          [
            16.40906,
            32.56121
          ],
          [
            16.39158,
            32.54648
          ],
          [
            16.37411,
            32.53176
          ],
          [
            16.35664,
            32.51703
          ],
          [
            16.33917,
            32.5023
          ],
          [
            16.32171,
            32.48757
          ],
          [
            16.30424,
            32.47284
          ],
          [
            16.28679,
            32.45811
          ],
          [
            16.26933,
            32.44338
          ],
          [
            16.25188,
            32.42865
          ],
          [
            16.23443,
            32.41392
          ],
          [
            16.21698,
            32.3992
          ],
          [
            16.19954,
            32.38447
          ],
          [
            16.18209,
            32.36974
          ],
          [
            16.16466,
            32.35501
          ],
          [
            16.14722,
            32.34028
          ],
          [
            16.12979,
            32.32555
          ],
          [
            16.11236,
            32.31082
          ],
          [
            16.09493,
            32.29609
          ],
          [
            16.0775,
            32.28136
          ],
          [
            16.06008,
            32.26664
          ],
          [
            16.04266,
            32.25191
          ],
          [
            16.02525,
            32.23718
          ],
          [
            16.00784,
            32.22245
          ],
          [
            15.99042,
            32.20772
          ],
          [
            15.97302,
            32.19299
          ],
          [
            15.95561,
            32.17826
          ],
          [
            15.93821,
            32.16353
          ],
          [
            15.92081,
            32.14881
          ],
          [
            15.90342,
            32.13408
          ],
          [
            15.88602,
            32.11935
          ],
          [
            15.86863,
            32.10462
          ],
          [
            15.85124,
            32.08989
          ],
          [
            15.83386,
            32.07516
          ],
          [
            15.81648,
            32.06043
          ],
          [
            15.7991,
            32.0457
          ],
          [
            15.78172,
            32.03097
          ],
          [
            15.76435,
            32.01625
          ],
          [
            15.74698,
            32.00152
          ],
          [
            15.72961,
            31.98679
          ],
          [
            15.71224,
            31.97206
          ],
          [
            15.69488,
            31.95733
          ],
          [
            15.67752,
            31.9426
          ],
          [
            15.66016,
            31.92787
          ],
          [
            15.64281,
            31.91314
          ],
          [
            15.62546,
            31.89841
          ],
          [
            15.60811,
            31.88369
          ],
          [
            15.59076,
            31.86896
          ],
          [
            15.57342,
            31.85423
          ],
          [
            15.55608,
            31.8395
          ],
          [
            15.53874,
            31.82477
          ],
          [
            15.52141,
            31.81004
          ],
          [
            15.50407,
            31.79531
          ],
          [
            15.48674,
            31.78058
          ],
          [
            15.46942,
            31.76585
          ],
          [
            15.45209,
            31.75113
          ],
          [
            15.43477,
            31.7364
          ],
          [
            15.41745,
            31.72167
          ],
          [
            15.40014,
            31.70694
          ],
          [
            15.38283,
            31.69221
          ],
          [
            15.36552,
            31.67748
          ],
          [
            15.34821,
            31.66275
          ],
          [
            15.3309,
            31.64802
          ],
          [
            15.3136,
            31.6333
          ],
          [
            15.2963,
            31.61857
          ]
        ]
      },
      "properties": {
        "mmsi": 240111004,
        "vessel_name": "GAS TRADER",
        "layer": "CANDIDATE_VESSEL_TRACK",
        "composite_score": 0.399,
        "decision": "INSUFFICIENT_EVIDENCE_EXONERATED"
      }
    },
    {
      "type": "Feature",
      "geometry": {
        "type": "LineString",
        "coordinates": [
          [
            17.8,
            35.1
          ],
          [
            17.82037,
            35.1
          ],
          [
            17.84074,
            35.1
          ],
          [
            17.8611,
            35.1
          ],
          [
            17.88147,
            35.1
          ],
          [
            17.90184,
            35.1
          ],
          [
            17.92221,
            35.1
          ],
          [
            17.94257,
            35.1
          ],
          [
            17.96294,
            35.1
          ],
          [
            17.98331,
            35.1
          ],
          [
            18.00368,
            35.1
          ],
          [
            18.02404,
            35.1
          ],
          [
            18.04441,
            35.1
          ],
          [
            18.06478,
            35.1
          ],
          [
            18.08515,
            35.1
          ],
          [
            18.10552,
            35.1
          ],
          [
            18.12588,
            35.1
          ],
          [
            18.14625,
            35.1
          ],
          [
            18.16662,
            35.1
          ],
          [
            18.18699,
            35.1
          ],
          [
            18.20735,
            35.1
          ],
          [
            18.22772,
            35.1
          ],
          [
            18.24809,
            35.1
          ],
          [
            18.26846,
            35.1
          ],
          [
            18.28882,
            35.1
          ],
          [
            18.30919,
            35.1
          ],
          [
            18.32956,
            35.1
          ],
          [
            18.34993,
            35.1
          ],
          [
            18.37029,
            35.1
          ],
          [
            18.39066,
            35.1
          ],
          [
            18.41103,
            35.1
          ],
          [
            18.4314,
            35.1
          ],
          [
            18.45177,
            35.1
          ],
          [
            18.47213,
            35.1
          ],
          [
            18.4925,
            35.1
          ],
          [
            18.51287,
            35.1
          ],
          [
            18.53324,
            35.1
          ],
          [
            18.5536,
            35.1
          ],
          [
            18.57397,
            35.1
          ],
          [
            18.59434,
            35.1
          ],
          [
            18.61471,
            35.1
          ],
          [
            18.63507,
            35.1
          ],
          [
            18.65544,
            35.1
          ],
          [
            18.67581,
            35.1
          ],
          [
            18.69618,
            35.1
          ],
          [
            18.71655,
            35.1
          ],
          [
            18.73691,
            35.1
          ],
          [
            18.75728,
            35.1
          ],
          [
            18.77765,
            35.1
          ],
          [
            18.79802,
            35.1
          ],
          [
            18.81838,
            35.1
          ],
          [
            18.83875,
            35.1
          ],
          [
            18.85912,
            35.1
          ],
          [
            18.87949,
            35.1
          ],
          [
            18.89985,
            35.1
          ],
          [
            18.92022,
            35.1
          ],
          [
            18.94059,
            35.1
          ],
          [
            18.96096,
            35.1
          ],
          [
            18.98132,
            35.1
          ],
          [
            19.00169,
            35.1
          ],
          [
            19.02206,
            35.1
          ],
          [
            19.04243,
            35.1
          ],
          [
            19.0628,
            35.1
          ],
          [
            19.08316,
            35.1
          ],
          [
            19.10353,
            35.1
          ],
          [
            19.1239,
            35.1
          ],
          [
            19.14427,
            35.1
          ],
          [
            19.16463,
            35.1
          ],
          [
            19.185,
            35.1
          ],
          [
            19.20537,
            35.1
          ],
          [
            19.22574,
            35.1
          ],
          [
            19.2461,
            35.1
          ],
          [
            19.26647,
            35.1
          ],
          [
            19.28684,
            35.1
          ],
          [
            19.30721,
            35.1
          ],
          [
            19.32758,
            35.1
          ],
          [
            19.34794,
            35.1
          ],
          [
            19.36831,
            35.1
          ],
          [
            19.38868,
            35.1
          ],
          [
            19.40905,
            35.1
          ],
          [
            19.42941,
            35.1
          ],
          [
            19.44978,
            35.1
          ],
          [
            19.47015,
            35.1
          ],
          [
            19.49052,
            35.1
          ],
          [
            19.51088,
            35.1
          ],
          [
            19.53125,
            35.1
          ],
          [
            19.55162,
            35.1
          ],
          [
            19.57199,
            35.1
          ],
          [
            19.59235,
            35.1
          ],
          [
            19.61272,
            35.1
          ],
          [
            19.63309,
            35.1
          ],
          [
            19.65346,
            35.1
          ],
          [
            19.67383,
            35.1
          ],
          [
            19.69419,
            35.1
          ],
          [
            19.71456,
            35.1
          ],
          [
            19.73493,
            35.1
          ],
          [
            19.7553,
            35.1
          ],
          [
            19.77566,
            35.1
          ],
          [
            19.79603,
            35.1
          ],
          [
            19.8164,
            35.1
          ],
          [
            19.83677,
            35.1
          ],
          [
            19.85713,
            35.1
          ],
          [
            19.8775,
            35.1
          ],
          [
            19.89787,
            35.1
          ],
          [
            19.91824,
            35.1
          ],
          [
            19.93861,
            35.1
          ],
          [
            19.95897,
            35.1
          ],
          [
            19.97934,
            35.1
          ],
          [
            19.99971,
            35.1
          ],
          [
            20.02008,
            35.1
          ],
          [
            20.04044,
            35.1
          ],
          [
            20.06081,
            35.1
          ],
          [
            20.08118,
            35.1
          ],
          [
            20.10155,
            35.1
          ],
          [
            20.12191,
            35.1
          ],
          [
            20.14228,
            35.1
          ],
          [
            20.16265,
            35.1
          ],
          [
            20.18302,
            35.1
          ],
          [
            20.20338,
            35.1
          ],
          [
            20.22375,
            35.1
          ],
          [
            20.24412,
            35.1
          ],
          [
            20.26449,
            35.1
          ],
          [
            20.28486,
            35.1
          ],
          [
            20.30522,
            35.1
          ],
          [
            20.32559,
            35.1
          ],
          [
            20.34596,
            35.1
          ],
          [
            20.36633,
            35.1
          ],
          [
            20.38669,
            35.1
          ],
          [
            20.40706,
            35.1
          ],
          [
            20.42743,
            35.1
          ],
          [
            20.4478,
            35.1
          ],
          [
            20.46816,
            35.1
          ],
          [
            20.48853,
            35.1
          ],
          [
            20.5089,
            35.1
          ],
          [
            20.52927,
            35.1
          ],
          [
            20.54964,
            35.1
          ],
          [
            20.57,
            35.1
          ],
          [
            20.59037,
            35.1
          ],
          [
            20.61074,
            35.1
          ],
          [
            20.63111,
            35.1
          ],
          [
            20.65147,
            35.1
          ],
          [
            20.67184,
            35.1
          ],
          [
            20.69221,
            35.1
          ],
          [
            20.71258,
            35.1
          ],
          [
            20.73294,
            35.1
          ],
          [
            20.75331,
            35.1
          ],
          [
            20.77368,
            35.1
          ],
          [
            20.79405,
            35.1
          ],
          [
            20.81442,
            35.1
          ],
          [
            20.83478,
            35.1
          ],
          [
            20.85515,
            35.1
          ],
          [
            20.87552,
            35.1
          ],
          [
            20.89589,
            35.1
          ],
          [
            20.91625,
            35.1
          ],
          [
            20.93662,
            35.1
          ],
          [
            20.95699,
            35.1
          ],
          [
            20.97736,
            35.1
          ],
          [
            20.99772,
            35.1
          ],
          [
            21.01809,
            35.1
          ],
          [
            21.03846,
            35.1
          ],
          [
            21.05883,
            35.1
          ],
          [
            21.07919,
            35.1
          ],
          [
            21.09956,
            35.1
          ],
          [
            21.11993,
            35.1
          ],
          [
            21.1403,
            35.1
          ],
          [
            21.16067,
            35.1
          ],
          [
            21.18103,
            35.1
          ],
          [
            21.2014,
            35.1
          ],
          [
            21.22177,
            35.1
          ],
          [
            21.24214,
            35.1
          ],
          [
            21.2625,
            35.1
          ],
          [
            21.28287,
            35.1
          ],
          [
            21.30324,
            35.1
          ],
          [
            21.32361,
            35.1
          ],
          [
            21.34397,
            35.1
          ],
          [
            21.36434,
            35.1
          ],
          [
            21.38471,
            35.1
          ],
          [
            21.40508,
            35.1
          ],
          [
            21.42545,
            35.1
          ],
          [
            21.44581,
            35.1
          ],
          [
            21.46618,
            35.1
          ],
          [
            21.48655,
            35.1
          ],
          [
            21.50692,
            35.1
          ],
          [
            21.52728,
            35.1
          ],
          [
            21.54765,
            35.1
          ],
          [
            21.56802,
            35.1
          ],
          [
            21.58839,
            35.1
          ],
          [
            21.60875,
            35.1
          ],
          [
            21.62912,
            35.1
          ],
          [
            21.64949,
            35.1
          ],
          [
            21.66986,
            35.1
          ],
          [
            21.69022,
            35.1
          ],
          [
            21.71059,
            35.1
          ],
          [
            21.73096,
            35.1
          ],
          [
            21.75133,
            35.1
          ],
          [
            21.7717,
            35.1
          ],
          [
            21.79206,
            35.1
          ],
          [
            21.81243,
            35.1
          ],
          [
            21.8328,
            35.1
          ],
          [
            21.85317,
            35.1
          ],
          [
            21.87353,
            35.1
          ],
          [
            21.8939,
            35.1
          ],
          [
            21.91427,
            35.1
          ],
          [
            21.93464,
            35.1
          ],
          [
            21.955,
            35.1
          ],
          [
            21.97537,
            35.1
          ],
          [
            21.99574,
            35.1
          ],
          [
            22.01611,
            35.1
          ],
          [
            22.03648,
            35.1
          ],
          [
            22.05684,
            35.1
          ],
          [
            22.07721,
            35.1
          ],
          [
            22.09758,
            35.1
          ],
          [
            22.11795,
            35.1
          ],
          [
            22.13831,
            35.1
          ],
          [
            22.15868,
            35.1
          ],
          [
            22.17905,
            35.1
          ],
          [
            22.19942,
            35.1
          ]
        ]
      },
      "properties": {
        "mmsi": 240111003,
        "vessel_name": "BLUE HORIZON",
        "layer": "CANDIDATE_VESSEL_TRACK",
        "composite_score": 0.324,
        "decision": "INSUFFICIENT_EVIDENCE_EXONERATED"
      }
    }
  ]
}